{
    "links": {
        "self": "http://www.neowsapp.com/rest/v1/neo/3275511?api_key=iIulBulltgU6a56xZRHN4H3l9WmuAYTsLGpBGhQ2"
    },
    "id": "3275511",
    "neo_reference_id": "3275511",
    "name": "(2005 GT)",
    "designation": "2005 GT",
    "nasa_jpl_url": "http://ssd.jpl.nasa.gov/sbdb.cgi?sstr=3275511",
    "absolute_magnitude_h": 26.9,
    "estimated_diameter": {
        "kilometers": {
            "estimated_diameter_min": 0.0110803882,
            "estimated_diameter_max": 0.0247765013
        },
        "meters": {
            "estimated_diameter_min": 11.0803882126,
            "estimated_diameter_max": 24.7765012606
        },
        "miles": {
            "estimated_diameter_min": 0.0068850319,
            "estimated_diameter_max": 0.0153953994
        },
        "feet": {
            "estimated_diameter_min": 36.3529808636,
            "estimated_diameter_max": 81.2877363957
        }
    },
    "is_potentially_hazardous_asteroid": false,
    "close_approach_data": [
        {
            "close_approach_date": "2005-04-09",
            "close_approach_date_full": "2005-Apr-09 15:12",
            "epoch_date_close_approach": 1113059520000,
            "relative_velocity": {
                "kilometers_per_second": "7.2486316486",
                "kilometers_per_hour": "26095.0739348092",
                "miles_per_hour": "16214.4641346596"
            },
            "miss_distance": {
                "astronomical": "0.0399453303",
                "lunar": "15.5387334867",
                "kilometers": "5975736.329326461",
                "miles": "3713150.3739727218"
            },
            "orbiting_body": "Earth"
        }
    ],
    "orbital_data": {
        "orbit_id": "7",
        "orbit_determination_date": "2017-04-06 09:11:10",
        "first_observation_date": "2005-04-01",
        "last_observation_date": "2005-04-02",
        "data_arc_in_days": 1,
        "observations_used": 16,
        "orbit_uncertainty": "8",
        "minimum_orbit_intersection": ".0348067",
        "jupiter_tisserand_invariant": "4.306",
        "epoch_osculation": "2453462.5",
        "eccentricity": ".3594186473993162",
        "semi_major_axis": "1.58396541538514",
        "inclination": "7.444547079964316",
        "ascending_node_longitude": "13.4696395348522",
        "orbital_period": "728.1434869171321",
        "perihelion_distance": "1.014658708260117",
        "perihelion_argument": "208.7604384587339",
        "aphelion_distance": "2.153272122510163",
        "perihelion_time": "2453489.393321653981",
        "mean_anomaly": "346.7037253379498",
        "mean_motion": ".4944080479579577",
        "equinox": "J2000",
        "orbit_class": {
            "orbit_class_type": "APO",
            "orbit_class_description": "Near-Earth asteroid orbits which cross the Earth’s orbit similar to that of 1862 Apollo",
            "orbit_class_range": "a (semi-major axis) > 1.0 AU; q (perihelion) < 1.017 AU"
        }
    },
    "is_sentry_object": false
}